start=new Date('2022-06-02T00:00:00.000Z').valueOf();
sats=[{"PERIAPSIS":"546.280","APOAPSIS":"548.174","CLASSIFICATION_TYPE":"U","PERIOD":"95.592","BSTAR":"0.00023476000000","ARG_OF_PERICENTER":"64.4703","TLE_LINE2":"2 48557  53.0522 192.6763 0001367  64.4703 295.6427 15.06395552 57674","OBJECT_TYPE":"PAYLOAD","ELEMENT_SET_NO":"999","NORAD_CAT_ID":"48557","MEAN_ANOMALY":"295.6427","MEAN_ELEMENT_THEORY":"SGP4","COUNTRY_CODE":"US","GP_ID":"205124662","SEMIMAJOR_AXIS":"6925.362","TLE_LINE1":"1 48557U 21041E   22152.81080802  .00003217  00000-0  23476-3 0  9994","MEAN_MOTION_DDOT":"0.0000000000000","ECCENTRICITY":"0.00013670","MEAN_MOTION":"15.06395552","FILE":"3476255","INCLINATION":"53.0522","RCS_SIZE":"LARGE","TIME_SYSTEM":"UTC","RA_OF_ASC_NODE":"192.6763","MEAN_MOTION_DOT":"0.00003217","CENTER_NAME":"EARTH","REV_AT_EPOCH":"5767","OBJECT_ID":"2021-041E","LAUNCH_DATE":"2021-05-15","EPOCH":"2022-06-01T19:27:33.812928","REF_FRAME":"TEME","EPHEMERIS_TYPE":"0","OBJECT_NAME":"STARLINK-2155","DECAY_DATE":null,"SITE":"AFETR"},{"RA_OF_ASC_NODE":"192.6902","CENTER_NAME":"EARTH","MEAN_MOTION_DOT":"0.00002096","FILE":"3476255","MEAN_MOTION":"15.06398365","TIME_SYSTEM":"UTC","RCS_SIZE":"LARGE","INCLINATION":"53.0546","DECAY_DATE":null,"SITE":"AFETR","LAUNCH_DATE":"2021-05-15","REV_AT_EPOCH":"5681","OBJECT_ID":"2021-041F","REF_FRAME":"TEME","EPHEMERIS_TYPE":"0","EPOCH":"2022-06-01T19:22:15.693312","OBJECT_NAME":"STARLINK-2166","ARG_OF_PERICENTER":"69.4665","TLE_LINE2":"2 48558  53.0546 192.6902 0001409  69.4665 290.6475 15.06398365 56813","OBJECT_TYPE":"PAYLOAD","PERIAPSIS":"546.243","APOAPSIS":"548.194","CLASSIFICATION_TYPE":"U","PERIOD":"95.592","BSTAR":"0.00015954000000","SEMIMAJOR_AXIS":"6925.354","GP_ID":"205125413","MEAN_MOTION_DDOT":"0.0000000000000","TLE_LINE1":"1 48558U 21041F   22152.80712608  .00002096  00000-0  15954-3 0  9996","ECCENTRICITY":"0.00014090","NORAD_CAT_ID":"48558","ELEMENT_SET_NO":"999","MEAN_ELEMENT_THEORY":"SGP4","MEAN_ANOMALY":"290.6475","COUNTRY_CODE":"US"},{"GP_ID":"205125140","SEMIMAJOR_AXIS":"6925.347","MEAN_MOTION_DDOT":"0.0000000000000","TLE_LINE1":"1 48559U 21041G   22152.84303872  .00003027  00000-0  22201-3 0  9998","ECCENTRICITY":"0.00014750","MEAN_ANOMALY":"300.0611","MEAN_ELEMENT_THEORY":"SGP4","ELEMENT_SET_NO":"999","NORAD_CAT_ID":"48559","COUNTRY_CODE":"US","TLE_LINE2":"2 48559  53.0540 192.5162 0001475  60.0525 300.0611 15.06400487 57672","ARG_OF_PERICENTER":"60.0525","OBJECT_TYPE":"PAYLOAD","APOAPSIS":"548.234","CLASSIFICATION_TYPE":"U","PERIAPSIS":"546.191","BSTAR":"0.00022201000000","PERIOD":"95.592","DECAY_DATE":null,"SITE":"AFETR","OBJECT_ID":"2021-041G","REV_AT_EPOCH":"5767","LAUNCH_DATE":"2021-05-15","OBJECT_NAME":"STARLINK-2167","EPOCH":"2022-06-01T20:13:58.545408","EPHEMERIS_TYPE":"0","REF_FRAME":"TEME","RA_OF_ASC_NODE":"192.5162","MEAN_MOTION_DOT":"0.00003027","CENTER_NAME":"EARTH","MEAN_MOTION":"15.06400487","FILE":"3476255","INCLINATION":"53.0540","TIME_SYSTEM":"UTC","RCS_SIZE":"LARGE"},{"RCS_SIZE":"LARGE","TIME_SYSTEM":"UTC","INCLINATION":"53.0517","FILE":"3476255","MEAN_MOTION":"15.03934921","MEAN_MOTION_DOT":"0.00016193","CENTER_NAME":"EARTH","RA_OF_ASC_NODE":"162.6686","REF_FRAME":"TEME","EPHEMERIS_TYPE":"0","EPOCH":"2022-06-01T20:00:01.000224","OBJECT_NAME":"STARLINK-2186","LAUNCH_DATE":"2021-05-15","REV_AT_EPOCH":"130","OBJECT_ID":"2021-041J","SITE":"AFETR","DECAY_DATE":null,"PERIOD":"95.749","BSTAR":"0.00117850000000","PERIAPSIS":"553.712","APOAPSIS":"555.846","CLASSIFICATION_TYPE":"U","OBJECT_TYPE":"PAYLOAD","ARG_OF_PERICENTER":"81.9708","TLE_LINE2":"2 48561  53.0517 162.6686 0001539  81.9708 237.3932 15.03934921  1303","COUNTRY_CODE":"US","NORAD_CAT_ID":"48561","ELEMENT_SET_NO":"999","MEAN_ELEMENT_THEORY":"SGP4","MEAN_ANOMALY":"237.3932","ECCENTRICITY":"0.00015390","TLE_LINE1":"1 48561U 21041J   22152.83334491  .00016193  00000-0  11785-2 0  9993","MEAN_MOTION_DDOT":"0.0000000000000","SEMIMAJOR_AXIS":"6932.914","GP_ID":"205123913"},{"TLE_LINE2":"2 48562  53.0535 194.5711 0001284  78.3453 281.7680 15.06392406 57618","ARG_OF_PERICENTER":"78.3453","OBJECT_TYPE":"PAYLOAD","CLASSIFICATION_TYPE":"U","APOAPSIS":"548.126","PERIAPSIS":"546.348","BSTAR":"0.00002648800000","PERIOD":"95.593","GP_ID":"205125162","SEMIMAJOR_AXIS":"6925.372","ECCENTRICITY":"0.00012840","TLE_LINE1":"1 48562U 21041K   22152.38693354  .00000113  00000-0  26488-4 0  9993","MEAN_MOTION_DDOT":"0.0000000000000","MEAN_ELEMENT_THEORY":"SGP4","MEAN_ANOMALY":"281.7680","NORAD_CAT_ID":"48562","ELEMENT_SET_NO":"999","COUNTRY_CODE":"US","RA_OF_ASC_NODE":"194.5711","MEAN_MOTION_DOT":"0.00000113","CENTER_NAME":"EARTH","MEAN_MOTION":"15.06392406","FILE":"3476255","RCS_SIZE":"LARGE","TIME_SYSTEM":"UTC","INCLINATION":"53.0535","DECAY_DATE":null,"SITE":"AFETR","LAUNCH_DATE":"2021-05-15","REV_AT_EPOCH":"5761","OBJECT_ID":"2021-041K","OBJECT_NAME":"STARLINK-2187","REF_FRAME":"TEME","EPHEMERIS_TYPE":"0","EPOCH":"2022-06-01T09:17:11.057856"},{"TLE_LINE1":"1 48563U 21041L   22152.80344145  .00002165  00000-0  16421-3 0  9996","MEAN_MOTION_DDOT":"0.0000000000000","ECCENTRICITY":"0.00015350","SEMIMAJOR_AXIS":"6925.350","GP_ID":"205124914","COUNTRY_CODE":"US","MEAN_ANOMALY":"299.5217","MEAN_ELEMENT_THEORY":"SGP4","ELEMENT_SET_NO":"999","NORAD_CAT_ID":"48563","OBJECT_TYPE":"PAYLOAD","TLE_LINE2":"2 48563  53.0524 192.7073 0001535  60.5925 299.5217 15.06399525 57672","ARG_OF_PERICENTER":"60.5925","BSTAR":"0.00016421000000","PERIOD":"95.592","APOAPSIS":"548.278","CLASSIFICATION_TYPE":"U","PERIAPSIS":"546.152","SITE":"AFETR","DECAY_DATE":null,"OBJECT_NAME":"STARLINK-2188","EPOCH":"2022-06-01T19:16:57.341280","REF_FRAME":"TEME","EPHEMERIS_TYPE":"0","REV_AT_EPOCH":"5767","OBJECT_ID":"2021-041L","LAUNCH_DATE":"2021-05-15","MEAN_MOTION_DOT":"0.00002165","CENTER_NAME":"EARTH","RA_OF_ASC_NODE":"192.7073","INCLINATION":"53.0524","TIME_SYSTEM":"UTC","RCS_SIZE":"LARGE","MEAN_MOTION":"15.06399525","FILE":"3476255"},{"OBJECT_TYPE":"PAYLOAD","TLE_LINE2":"2 48564  53.0543 194.2353 0001550  64.7390 295.3759 15.06383721 57622","ARG_OF_PERICENTER":"64.7390","BSTAR":"0.00012251000000","PERIOD":"95.593","CLASSIFICATION_TYPE":"U","APOAPSIS":"548.337","PERIAPSIS":"546.190","MEAN_MOTION_DDOT":"0.0000000000000","TLE_LINE1":"1 48564U 21041M   22152.46435048  .00001543  00000-0  12251-3 0  9998","ECCENTRICITY":"0.00015500","SEMIMAJOR_AXIS":"6925.398","GP_ID":"205125640","COUNTRY_CODE":"US","MEAN_ELEMENT_THEORY":"SGP4","MEAN_ANOMALY":"295.3759","NORAD_CAT_ID":"48564","ELEMENT_SET_NO":"999","CENTER_NAME":"EARTH","MEAN_MOTION_DOT":"0.00001543","RA_OF_ASC_NODE":"194.2353","TIME_SYSTEM":"UTC","RCS_SIZE":"LARGE","INCLINATION":"53.0543","MEAN_MOTION":"15.06383721","FILE":"3476255","SITE":"AFETR","DECAY_DATE":null,"OBJECT_NAME":"STARLINK-2190","EPHEMERIS_TYPE":"0","REF_FRAME":"TEME","EPOCH":"2022-06-01T11:08:39.881472","LAUNCH_DATE":"2021-05-15","REV_AT_EPOCH":"5762","OBJECT_ID":"2021-041M"},{"REV_AT_EPOCH":"5768","OBJECT_ID":"2021-041N","LAUNCH_DATE":"2021-05-15","EPOCH":"2022-06-01T20:36:35.457408","REF_FRAME":"TEME","EPHEMERIS_TYPE":"0","OBJECT_NAME":"STARLINK-2191","DECAY_DATE":null,"SITE":"AFETR","MEAN_MOTION":"15.06394629","FILE":"3476255","INCLINATION":"53.0537","RCS_SIZE":"LARGE","TIME_SYSTEM":"UTC","RA_OF_ASC_NODE":"192.4590","CENTER_NAME":"EARTH","MEAN_MOTION_DOT":"0.00000701","ELEMENT_SET_NO":"999","NORAD_CAT_ID":"48565","MEAN_ANOMALY":"245.1867","MEAN_ELEMENT_THEORY":"SGP4","COUNTRY_CODE":"US","GP_ID":"205124412","SEMIMAJOR_AXIS":"6925.365","TLE_LINE1":"1 48565U 21041N   22152.85874372  .00000701  00000-0  65983-4 0  9995","ECCENTRICITY":"0.00010850","MEAN_MOTION_DDOT":"0.0000000000000","PERIAPSIS":"546.479","CLASSIFICATION_TYPE":"U","APOAPSIS":"547.981","PERIOD":"95.592","BSTAR":"0.00006598300000","ARG_OF_PERICENTER":"114.9235","TLE_LINE2":"2 48565  53.0537 192.4590 0001085 114.9235 245.1867 15.06394629 57686","OBJECT_TYPE":"PAYLOAD"},{"MEAN_MOTION_DOT":"0.00000950","CENTER_NAME":"EARTH","RA_OF_ASC_NODE":"203.8262","INCLINATION":"53.0526","RCS_SIZE":"MEDIUM","TIME_SYSTEM":"UTC","FILE":"3476255","MEAN_MOTION":"15.07220479","SITE":"AFETR","DECAY_DATE":null,"OBJECT_NAME":"STARLINK-2214","EPOCH":"2022-06-01T13:10:41.829600","REF_FRAME":"TEME","EPHEMERIS_TYPE":"0","OBJECT_ID":"2021-041P","REV_AT_EPOCH":"5749","LAUNCH_DATE":"2021-05-15","OBJECT_TYPE":"PAYLOAD","TLE_LINE2":"2 48566  53.0526 203.8262 0001448  60.0489 300.0644 15.07220479 57498","ARG_OF_PERICENTER":"60.0489","BSTAR":"0.00008099900000","PERIOD":"95.540","CLASSIFICATION_TYPE":"U","APOAPSIS":"545.702","PERIAPSIS":"543.698","MEAN_MOTION_DDOT":"0.0000000000000","TLE_LINE1":"1 48566U 21041P   22152.54909525  .00000950  00000-0  80999-4 0  9991","ECCENTRICITY":"0.00014480","SEMIMAJOR_AXIS":"6922.835","GP_ID":"205124663","COUNTRY_CODE":"US","MEAN_ANOMALY":"300.0644","MEAN_ELEMENT_THEORY":"SGP4","ELEMENT_SET_NO":"999","NORAD_CAT_ID":"48566"},{"DECAY_DATE":null,"SITE":"AFETR","OBJECT_ID":"2021-041Q","REV_AT_EPOCH":"5753","LAUNCH_DATE":"2021-05-15","OBJECT_NAME":"STARLINK-2215","EPOCH":"2022-06-01T19:52:47.351712","REF_FRAME":"TEME","EPHEMERIS_TYPE":"0","RA_OF_ASC_NODE":"202.5945","MEAN_MOTION_DOT":"0.00002400","CENTER_NAME":"EARTH","MEAN_MOTION":"15.06388779","FILE":"3476255","INCLINATION":"53.0551","TIME_SYSTEM":"UTC","RCS_SIZE":"LARGE","SEMIMAJOR_AXIS":"6925.383","GP_ID":"205125414","MEAN_MOTION_DDOT":"0.0000000000000","TLE_LINE1":"1 48567U 21041Q   22152.82832583  .00002400  00000-0  17998-3 0  9992","ECCENTRICITY":"0.00012950","MEAN_ANOMALY":"299.5440","MEAN_ELEMENT_THEORY":"SGP4","ELEMENT_SET_NO":"999","NORAD_CAT_ID":"48567","COUNTRY_CODE":"US","TLE_LINE2":"2 48567  53.0551 202.5945 0001295  60.5679 299.5440 15.06388779 57535","ARG_OF_PERICENTER":"60.5679","OBJECT_TYPE":"PAYLOAD","APOAPSIS":"548.145","CLASSIFICATION_TYPE":"U","PERIAPSIS":"546.351","BSTAR":"0.00017998000000","PERIOD":"95.593"}];
